NORAD_CAT_ID,OBJECT_NAME,OBJECT_TYPE,EPOCH,MEAN_MOTION,ECCENTRICITY,INCLINATION,RA_OF_ASC_NODE,ARG_OF_PERICENTER,MEAN_ANOMALY,BSTAR,MEAN_MOTION_DOT,MEAN_MOTION_DDOT,TLE_LINE0,TLE_LINE1,TLE_LINE2,SEMIMAJOR_AXIS,PERIOD,APOGEE,PERIGEE,DECAYED
56791.0,STARLINK-5977,PAYLOAD,2024-03-21 11:48:28,14.98330321,0.0003044,70.0012,355.1905,271.6786,88.4024,-0.00014417,-1.813e-05,0.0,0 STARLINK-5977,1 56791U 23078AA  24081.49199785 -.00001813  00000-0 -14417-3 0  9990,2 56791  70.0012 355.1905 0003044 271.6786  88.4024 14.98330321 45106,6950.192,96.107,574.173,569.941,0.0
56791.0,STARLINK-5977,PAYLOAD,2024-03-21 19:49:08,14.98332204,0.0003055,70.0009,354.3486,267.3165,92.7644,-9.6894e-05,-1.249e-05,0.0,0 STARLINK-5977,1 56791U 23078AA  24081.82579573 -.00001249  00000-0 -96894-4 0  9997,2 56791  70.0009 354.3486 0003055 267.3165  92.7644 14.98332204 45414,6950.186,96.107,574.174,569.928,0.0
56791.0,STARLINK-5977,PAYLOAD,2024-03-21 21:25:16,14.98333133,0.0003041,70.0009,354.1802,266.5361,93.545,-0.00010196,-1.309e-05,0.0,0 STARLINK-5977,1 56791U 23078AA  24081.89255525 -.00001309  00000-0 -10196-3 0  9999,2 56791  70.0009 354.1802 0003041 266.5361  93.5450 14.98333133 45166,6950.183,96.107,574.162,569.935,0.0
56791.0,STARLINK-5977,PAYLOAD,2024-03-22 03:49:48,14.98341526,0.000267,70.0019,353.5092,255.3462,104.7401,1.449e-06,-7.6e-07,0.0,0 STARLINK-5977,1 56791U 23078AA  24082.15958491 -.00000076  00000-0  14490-5 0  9993,2 56791  70.0019 353.5092 0002670 255.3462 104.7401 14.98341526 45465,6950.157,96.106,573.878,570.167,0.0
56791.0,STARLINK-5977,PAYLOAD,2024-03-22 19:51:09,14.98319371,0.0003145,70.0006,351.8239,265.7872,94.2927,6.1889e-05,6.45e-06,0.0,0 STARLINK-5977,1 56791U 23078AA  24082.82719842  .00000645  00000-0  61889-4 0  9996,2 56791  70.0006 351.8239 0003145 265.7872  94.2927 14.98319371 45563,6950.226,96.108,574.277,569.905,0.0
56791.0,STARLINK-5977,PAYLOAD,2024-03-22 21:27:18,14.98319643,0.0003072,70.0011,351.6558,266.7196,93.3612,5.5244e-05,5.66e-06,0.0,0 STARLINK-5977,1 56791U 23078AA  24082.89395902  .00000566  00000-0  55244-4 0  9990,2 56791  70.0011 351.6558 0003072 266.7196  93.3612 14.98319643 45316,6950.225,96.108,574.225,569.955,0.0
56791.0,STARLINK-5977,PAYLOAD,2024-03-23 19:53:10,14.98331663,0.0002661,70.0024,349.3006,263.3315,96.7541,-6.5295e-05,-8.72e-06,0.0,0 STARLINK-5977,1 56791U 23078AA  24083.82859805 -.00000872  00000-0 -65295-4 0  9990,2 56791  70.0024 349.3006 0002661 263.3315  96.7541 14.98331663 45719,6950.188,96.107,573.902,570.203,0.0
56791.0,STARLINK-5977,PAYLOAD,2024-03-23 21:29:18,14.98335675,0.0002614,70.0025,349.1324,264.0015,96.0846,-0.00011602,-1.477e-05,0.0,0 STARLINK-5977,1 56791U 23078AA  24083.89535668 -.00001477  00000-0 -11602-3 0  9999,2 56791  70.0025 349.1324 0002614 264.0015  96.0846 14.98335675 45464,6950.175,96.107,573.857,570.224,0.0
56791.0,STARLINK-5977,PAYLOAD,2024-03-24 03:53:50,14.98348146,0.0002196,70.0026,348.4594,242.0273,118.0664,-2.5663e-05,-3.99e-06,0.0,0 STARLINK-5977,1 56791U 23078AA  24084.16238505 -.00000399  00000-0 -25663-4 0  9995,2 56791  70.0026 348.4594 0002196 242.0273 118.0664 14.98348146 45766,6950.137,96.106,573.528,570.476,0.0
56791.0,STARLINK-5977,PAYLOAD,2024-03-24 10:18:23,14.98333109,0.0002396,70.0015,347.7859,276.5263,83.5624,-0.00015014,-1.884e-05,0.0,0 STARLINK-5977,1 56791U 23078AA  24084.42943856 -.00001884  00000-0 -15014-3 0  9994,2 56791  70.0015 347.7859 0002396 276.5263  83.5624 14.98333109 45803,6950.183,96.107,573.714,570.383,0.0
56791.0,STARLINK-5977,PAYLOAD,2024-03-24 19:55:13,14.98306766,0.0003196,70.0012,346.7748,266.1675,93.9119,-0.00020112,-2.49e-05,0.0,0 STARLINK-5977,1 56791U 23078AA  24084.83001726 -.00002490  00000-0 -20112-3 0  9999,2 56791  70.0012 346.7748 0003196 266.1675  93.9119 14.98306766 45866,6950.265,96.108,574.351,569.908,0.0
56791.0,STARLINK-5977,PAYLOAD,2024-03-24 23:07:29,14.98309247,0.0003258,69.9998,346.4376,272.1719,87.9067,-0.00016472,-2.057e-05,0.0,0 STARLINK-5977,1 56791U 23078AA  24084.96353656 -.00002057  00000-0 -16472-3 0  9998,2 56791  69.9998 346.4376 0003258 272.1719  87.9067 14.98309247 45621,6950.257,96.108,574.386,569.858,0.0
56791.0,STARLINK-5977,PAYLOAD,2024-03-25 10:20:24,14.9834244,0.0003078,70.0011,345.2581,273.4326,86.6481,-0.00026953,-3.309e-05,0.0,0 STARLINK-5977,1 56791U 23078AA  24085.43083985 -.00003309  00000-0 -26953-3 0  9992,2 56791  70.0011 345.2581 0003078 273.4326  86.6481 14.98342440 45957,6950.154,96.106,574.159,569.88,0.0
56791.0,STARLINK-5977,PAYLOAD,2024-03-25 21:33:20,14.98332105,0.0003412,69.9995,344.077,280.1028,79.9747,7.2646e-05,7.74e-06,0.0,0 STARLINK-5977,1 56791U 23078AA  24085.89815894  .00000774  00000-0  72646-4 0  9996,2 56791  69.9995 344.0770 0003412 280.1028  79.9747 14.98332105 45764,6950.186,96.107,574.423,569.68,0.0
56791.0,STARLINK-5977,PAYLOAD,2024-03-26 03:57:52,14.98344954,0.000241,70.0018,343.4097,257.9207,102.1682,0.00015765,1.789e-05,0.0,0 STARLINK-5977,1 56791U 23078AA  24086.16518731  .00001789  00000-0  15765-3 0  9992,2 56791  70.0018 343.4097 0002410 257.9207 102.1682 14.98344954 46062,6950.147,96.106,573.687,570.337,0.0
56791.0,STARLINK-5977,PAYLOAD,2024-03-26 10:22:26,14.98333246,0.0001559,70.0019,342.7324,303.6635,56.4376,-0.00017469,-2.177e-05,0.0,0 STARLINK-5977,1 56791U 23078AA  24086.43224795 -.00002177  00000-0 -17469-3 0  9993,2 56791  70.0019 342.7324 0001559 303.6635  56.4376 14.98333246 46103,6950.183,96.107,573.131,570.964,0.0
56791.0,STARLINK-5977,PAYLOAD,2024-03-26 19:59:14,14.98313728,0.0002837,70.0013,341.7264,271.7199,88.3635,4.1682e-05,4.04e-06,0.0,0 STARLINK-5977,1 56791U 23078AA  24086.83281011  .00000404  00000-0  41682-4 0  9995,2 56791  70.0013 341.7264 0002837 271.7199  88.3635 14.98313728 46160,6950.243,96.108,574.08,570.136,0.0
56791.0,STARLINK-5977,PAYLOAD,2024-03-26 23:11:30,14.98312009,0.0002718,70.0013,341.3903,267.4895,92.5953,0.00013148,1.475e-05,0.0,0 STARLINK-5977,1 56791U 23078AA  24086.96632964  .00001475  00000-0  13148-3 0  9990,2 56791  70.0013 341.3903 0002718 267.4895  92.5953 14.98312009 45923,6950.249,96.108,574.003,570.224,0.0
56791.0,STARLINK-5977,PAYLOAD,2024-03-27 02:23:47,14.98312756,0.0002668,70.0014,341.0541,267.5839,92.5014,0.00013522,1.52e-05,0.0,0 STARLINK-5977,1 56791U 23078AA  24087.09985030  .00001520  00000-0  13522-3 0  9997,2 56791  70.0014 341.0541 0002668 267.5839  92.5014 14.98312756 45941,6950.246,96.108,573.966,570.257,0.0
56791.0,STARLINK-5977,PAYLOAD,2024-03-27 20:01:14,14.98337191,0.0002916,70.0012,339.202,271.7901,88.2924,-7.4145e-05,-9.78e-06,0.0,0 STARLINK-5977,1 56791U 23078AA  24087.83420132 -.00000978  00000-0 -74145-4 0  9993,2 56791  70.0012 339.2020 0002916 271.7901  88.2924 14.98337191 46317,6950.171,96.107,574.062,570.009,0.0
56791.0,STARLINK-5977,PAYLOAD,2024-03-27 21:37:23,14.98336441,0.0002948,70.0013,339.0337,271.7782,88.3039,-7.1417e-05,-9.45e-06,0.0,0 STARLINK-5977,1 56791U 23078AA  24087.90096140 -.00000945  00000-0 -71417-4 0  9992,2 56791  70.0013 339.0337 0002948 271.7782  88.3039 14.98336441 46066,6950.173,96.107,574.087,569.989,0.0
56791.0,STARLINK-5977,PAYLOAD,2024-03-28 10:26:27,14.98342084,0.000296,70.0008,337.685,269.799,90.2829,-0.00010231,-1.314e-05,0.0,0 STARLINK-5977,1 56791U 23078AA  24088.43503493 -.00001314  00000-0 -10231-3 0  9992,2 56791  70.0008 337.6850 0002960 269.7990  90.2829 14.98342084 46144,6950.156,96.106,574.078,569.963,0.0
56791.0,STARLINK-5977,PAYLOAD,2024-03-28 23:15:31,14.98327877,0.0003268,70.0007,336.3393,273.4561,86.6225,0.00019173,2.195e-05,0.0,0 STARLINK-5977,1 56791U 23078AA  24088.96911538  .00002195  00000-0  19173-3 0  9993,2 56791  70.0007 336.3393 0003268 273.4561  86.6225 14.98327877 46220,6950.199,96.107,574.336,569.793,0.0
56791.0,STARLINK-5977,PAYLOAD,2024-03-29 02:27:47,14.98334638,0.0003134,70.0008,336.0026,271.4471,88.6329,0.00012149,1.357e-05,0.0,0 STARLINK-5977,1 56791U 23078AA  24089.10263281  .00001357  00000-0  12149-3 0  9990,2 56791  70.0008 336.0026 0003134 271.4471  88.6329 14.98334638 46502,6950.179,96.107,574.222,569.865,0.0
56791.0,STARLINK-5977,PAYLOAD,2024-03-29 23:17:32,14.98333211,0.0003064,70.0015,333.8144,272.6544,87.4264,-2.4587e-05,-3.86e-06,0.0,0 STARLINK-5977,1 56791U 23078AA  24089.97051609 -.00000386  00000-0 -24587-4 0  9997,2 56791  70.0015 333.8144 0003064 272.6544  87.4264 14.98333211 46378,6950.183,96.107,574.177,569.918,0.0
56791.0,STARLINK-5977,PAYLOAD,2024-03-30 02:29:48,14.98334102,0.0002799,70.0014,333.4777,267.1835,92.9003,2.9807e-06,-5.7e-07,0.0,0 STARLINK-5977,1 56791U 23078AA  24090.10403449 -.00000057  00000-0  29807-5 0  9992,2 56791  70.0014 333.4777 0002799 267.1835  92.9003 14.98334102 46654,6950.18,96.107,573.991,570.1,0.0
56791.0,STARLINK-5977,PAYLOAD,2024-03-30 08:54:20,14.98359628,0.0002766,70.0022,332.8028,277.2904,82.7941,-0.00050218,-6.084e-05,0.0,0 STARLINK-5977,1 56791U 23078AA  24090.37107084 -.00006084  00000-0 -50218-3 0  9992,2 56791  70.0022 332.8028 0002766 277.2904  82.7941 14.98359628 46690,6950.101,96.105,573.889,570.044,0.0
56791.0,STARLINK-5977,PAYLOAD,2024-03-30 21:43:25,14.98329299,0.0003111,70.0007,331.4569,273.0619,87.0184,-3.4014e-05,-4.99e-06,0.0,0 STARLINK-5977,1 56791U 23078AA  24090.90515705 -.00000499  00000-0 -34014-4 0  9995,2 56791  70.0007 331.4569 0003111 273.0619  87.0184 14.98329299 46519,6950.195,96.107,574.222,569.898,0.0
56791.0,STARLINK-5977,PAYLOAD,2024-03-31 02:31:49,14.98343445,0.0002683,70.0022,330.9519,276.6512,83.4342,-0.00022141,-2.735e-05,0.0,0 STARLINK-5977,1 56791U 23078AA  24091.10543535 -.00002735  00000-0 -22141-3 0  9992,2 56791  70.0022 330.9519 0002683 276.6512  83.4342 14.98343445 46806,6950.151,96.106,573.881,570.152,0.0
56791.0,STARLINK-5977,PAYLOAD,2024-03-31 08:56:21,14.98335107,0.0002893,70.0014,330.2795,272.6765,87.4063,-2.7854e-05,-4.25e-06,0.0,0 STARLINK-5977,1 56791U 23078AA  24091.37247195 -.00000425  00000-0 -27854-4 0  9995,2 56791  70.0014 330.2795 0002893 272.6765  87.4063 14.98335107 46580,6950.177,96.107,574.053,570.031,0.0
